{"type": "FeatureCollection", "features": [ {"type": "Feature", "properties": {"norad_id": 30858, "name": "FENGYUN 1C DEB", "group": "fengyun-1c-debris", "lat": 18.674195703954666, "lon": -140.0927110459173, "alt_km": 813.9266589680183, "timestamp": "2025-12-05T04:52:15.571134+00:00", "meta": {"OBJECT_NAME": "FENGYUN 1C DEB", "OBJECT_ID": "1999-025AWU", "EPOCH": "2025-12-04T10:05:35.584800", "MEAN_MOTION": 14.17761217, "ECCENTRICITY": 0.0030811, "INCLINATION": 98.8002, "RA_OF_ASC_NODE": 36.1311, "ARG_OF_PERICENTER": 132.9075, "MEAN_ANOMALY": 356.7779, "EPHEMERIS_TYPE": 0, "CLASSIFICATION_TYPE": "U", "NORAD_CAT_ID": 30858, "ELEMENT_SET_NO": 999, "REV_AT_EPOCH": 96862, "BSTAR": 0.00071443, "MEAN_MOTION_DOT": 1.419e-05, "MEAN_MOTION_DDOT": 0}, "tle": {"line1": "1 30858U 99025AWU 25338.42055075  .00001419  00000+0  71443-3 0  9994", "line2": "2 30858  98.8002  36.1311 0030811 132.9075 356.7779 14.17761217968620"}}, "geometry": {"type": "Point", "coordinates": [-140.0927110459173, 18.674195703954666]}}, {"type": "Feature", "properties": {"norad_id": 30859, "name": "FENGYUN 1C DEB", "group": "fengyun-1c-debris", "lat": 64.30017192930919, "lon": -132.04982964008752, "alt_km": 711.7852637147371, "timestamp": "2025-12-05T04:52:15.571143+00:00", "meta": {"OBJECT_NAME": "FENGYUN 1C DEB", "OBJECT_ID": "1999-025AWV", "EPOCH": "2025-12-04T15:05:20.476608", "MEAN_MOTION": 14.48807861, "ECCENTRICITY": 0.0031596, "INCLINATION": 98.922, "RA_OF_ASC_NODE": 28.2923, "ARG_OF_PERICENTER": 56.0981, "MEAN_ANOMALY": 304.3209, "EPHEMERIS_TYPE": 0, "CLASSIFICATION_TYPE": "U", "NORAD_CAT_ID": 30859, "ELEMENT_SET_NO": 999, "REV_AT_EPOCH": 96917, "BSTAR": 0.0069867, "MEAN_MOTION_DOT": 0.00026609, "MEAN_MOTION_DDOT": 0}, "tle": {"line1": "1 30859U 99025AWV 25338.62870922  .00026609  00000+0  69867-2 0  9997", "line2": "2 30859  98.9220  28.2923 0031596  56.0981 304.3209 14.48807861969176"}}, "geometry": {"type": "Point", "coordinates": [-132.04982964008752, 64.30017192930919]}}, {"type": "Feature", "properties": {"norad_id": 30860, "name": "FENGYUN 1C DEB", "group": "fengyun-1c-debris", "lat": -63.93442387635243, "lon": -146.1496193801056, "alt_km": 791.3266744670282, "timestamp": "2025-12-05T04:52:15.571152+00:00", "meta": {"OBJECT_NAME": "FENGYUN 1C DEB", "OBJECT_ID": "1999-025AWW", "EPOCH": "2025-12-04T15:55:51.028320", "MEAN_MOTION": 14.25399955, "ECCENTRICITY": 0.0039968, "INCLINATION": 98.9061, "RA_OF_ASC_NODE": 52.0003, "ARG_OF_PERICENTER": 209.834, "MEAN_ANOMALY": 150.056, "EPHEMERIS_TYPE": 0, "CLASSIFICATION_TYPE": "U", "NORAD_CAT_ID": 30860, "ELEMENT_SET_NO": 999, "REV_AT_EPOCH": 96401, "BSTAR": 0.0038163, "MEAN_MOTION_DOT": 9.042e-05, "MEAN_MOTION_DDOT": 0}, "tle": {"line1": "1 30860U 99025AWW 25338.66378505  .00009042  00000+0  38163-2 0  9990", "line2": "2 30860  98.9061  52.0003 0039968 209.8340 150.0560 14.25399955964012"}}, "geometry": {"type": "Point", "coordinates": [-146.1496193801056, -63.93442387635243]}}, {"type": "Feature", "properties": {"norad_id": 30862, "name": "FENGYUN 1C DEB", "group": "fengyun-1c-debris", "lat": -66.05357947737566, "lon": 90.39111221392834, "alt_km": 768.4379698380353, "timestamp": "2025-12-05T04:52:15.571160+00:00", "meta": {"OBJECT_NAME": "FENGYUN 1C DEB", "OBJECT_ID": "1999-025AWY", "EPOCH": "2025-12-03T05:03:23.950368", "MEAN_MOTION": 14.42697915, "ECCENTRICITY": 0.00538995, "INCLINATION": 98.9598, "RA_OF_ASC_NODE": 67.4901, "ARG_OF_PERICENTER": 189.9681, "MEAN_ANOMALY": 200.2162, "EPHEMERIS_TYPE": 0, "CLASSIFICATION_TYPE": "U", "NORAD_CAT_ID": 30862, "ELEMENT_SET_NO": 999, "REV_AT_EPOCH": 96582, "BSTAR": 0.0049360153, "MEAN_MOTION_DOT": 0.00016707, "MEAN_MOTION_DDOT": 0}, "tle": {"line1": "1 30862U 99025AWY 25337.21069387  .00016707  00000+0  49360-2 0  9994", "line2": "2 30862  98.9598  67.4901 0053899 189.9681 200.2162 14.42697915965823"}}, "geometry": {"type": "Point", "coordinates": [90.39111221392834, -66.05357947737566]}}, {"type": "Feature", "properties": {"norad_id": 30863, "name": "FENGYUN 1C DEB", "group": "fengyun-1c-debris", "lat": -66.10730550263699, "lon": -166.69521814351467, "alt_km": 878.1721831818841, "timestamp": "2025-12-05T04:52:15.571169+00:00", "meta": {"OBJECT_NAME": "FENGYUN 1C DEB", "OBJECT_ID": "1999-025AWZ", "EPOCH": "2025-12-01T19:58:05.361600", "MEAN_MOTION": 12.4043832, "ECCENTRICITY": 0.08789042, "INCLINATION": 99.121, "RA_OF_ASC_NODE": 169.4702, "ARG_OF_PERICENTER": 273.3504, "MEAN_ANOMALY": 88.4954, "EPHEMERIS_TYPE": 0, "CLASSIFICATION_TYPE": "U", "NORAD_CAT_ID": 30863, "ELEMENT_SET_NO": 999, "REV_AT_EPOCH": 59605, "BSTAR": 0.0034163512, "MEAN_MOTION_DOT": 1.767e-05, "MEAN_MOTION_DDOT": 0}, "tle": {"line1": "1 30863U 99025AWZ 25335.83200650  .00001767  00000+0  34164-2 0  9997", "line2": "2 30863  99.1210 169.4702 0878904 273.3504  88.4954 12.40438320596053"}}, "geometry": {"type": "Point", "coordinates": [-166.69521814351467, -66.10730550263699]}}, {"type": "Feature", "properties": {"norad_id": 30867, "name": "FENGYUN 1C DEB", "group": "fengyun-1c-debris", "lat": -61.903833530784546, "lon": 51.741688754569765, "alt_km": 833.200260440778, "timestamp": "2025-12-05T04:52:15.571178+00:00", "meta": {"OBJECT_NAME": "FENGYUN 1C DEB", "OBJECT_ID": "1999-025AXD", "EPOCH": "2025-12-03T05:21:09.982944", "MEAN_MOTION": 14.27801601, "ECCENTRICITY": 0.0054785, "INCLINATION": 97.8769, "RA_OF_ASC_NODE": 244.9851, "ARG_OF_PERICENTER": 22.51, "MEAN_ANOMALY": 129.6321, "EPHEMERIS_TYPE": 0, "CLASSIFICATION_TYPE": "U", "NORAD_CAT_ID": 30867, "ELEMENT_SET_NO": 999, "REV_AT_EPOCH": 96401, "BSTAR": 0.0034672, "MEAN_MOTION_DOT": 8.678e-05, "MEAN_MOTION_DDOT": 0}, "tle": {"line1": "1 30867U 99025AXD 25337.22303221  .00008678  00000+0  34672-2 0  9996", "line2": "2 30867  97.8769 244.9851 0054785  22.5100 129.6321 14.27801601964018"}}, "geometry": {"type": "Point", "coordinates": [51.741688754569765, -61.903833530784546]}}, {"type": "Feature", "properties": {"norad_id": 30868, "name": "FENGYUN 1C DEB", "group": "fengyun-1c-debris", "lat": 6.805053817561192, "lon": 38.82668315247212, "alt_km": 810.4092172711653, "timestamp": "2025-12-05T04:52:15.571187+00:00", "meta": {"OBJECT_NAME": "FENGYUN 1C DEB", "OBJECT_ID": "1999-025AXE", "EPOCH": "2025-12-04T10:11:38.158080", "MEAN_MOTION": 14.11113464, "ECCENTRICITY": 0.0134868, "INCLINATION": 98.2639, "RA_OF_ASC_NODE": 217.1164, "ARG_OF_PERICENTER": 237.0355, "MEAN_ANOMALY": 306.2468, "EPHEMERIS_TYPE": 0, "CLASSIFICATION_TYPE": "U", "NORAD_CAT_ID": 30868, "ELEMENT_SET_NO": 999, "REV_AT_EPOCH": 96593, "BSTAR": 0.00030411, "MEAN_MOTION_DOT": 5.56e-06, "MEAN_MOTION_DDOT": 0}, "tle": {"line1": "1 30868U 99025AXE 25338.42474720  .00000556  00000+0  30411-3 0  9998", "line2": "2 30868  98.2639 217.1164 0134868 237.0355 306.2468 14.11113464965938"}}, "geometry": {"type": "Point", "coordinates": [38.82668315247212, 6.805053817561192]}}, {"type": "Feature", "properties": {"norad_id": 30872, "name": "FENGYUN 1C DEB", "group": "fengyun-1c-debris", "lat": -63.15713055385351, "lon": 49.698759065848165, "alt_km": 780.4715706706829, "timestamp": "2025-12-05T04:52:15.571196+00:00", "meta": {"OBJECT_NAME": "FENGYUN 1C DEB", "OBJECT_ID": "1999-025AXJ", "EPOCH": "2025-12-01T02:52:00.052320", "MEAN_MOTION": 14.39326682, "ECCENTRICITY": 0.0041385, "INCLINATION": 99.1951, "RA_OF_ASC_NODE": 26.6549, "ARG_OF_PERICENTER": 62.9558, "MEAN_ANOMALY": 325.6114, "EPHEMERIS_TYPE": 0, "CLASSIFICATION_TYPE": "U", "NORAD_CAT_ID": 30872, "ELEMENT_SET_NO": 999, "REV_AT_EPOCH": 97569, "BSTAR": 0.0009159011, "MEAN_MOTION_DOT": 2.825e-05, "MEAN_MOTION_DDOT": 0}, "tle": {"line1": "1 30872U 99025AXJ 25335.11944505  .00002825  00000+0  91590-3 0  9995", "line2": "2 30872  99.1951  26.6549 0041385  62.9558 325.6114 14.39326682975696"}}, "geometry": {"type": "Point", "coordinates": [49.698759065848165, -63.15713055385351]}}, {"type": "Feature", "properties": {"norad_id": 30873, "name": "FENGYUN 1C DEB", "group": "fengyun-1c-debris", "lat": 51.42735382888583, "lon": -31.232017769410422, "alt_km": 838.3445172958627, "timestamp": "2025-12-05T04:52:15.571205+00:00", "meta": {"OBJECT_NAME": "FENGYUN 1C DEB", "OBJECT_ID": "1999-025AXK", "EPOCH": "2025-12-02T19:05:40.608960", "MEAN_MOTION": 14.19120964, "ECCENTRICITY": 0.01080899, "INCLINATION": 98.6116, "RA_OF_ASC_NODE": 337.3821, "ARG_OF_PERICENTER": 317.6858, "MEAN_ANOMALY": 41.6016, "EPHEMERIS_TYPE": 0, "CLASSIFICATION_TYPE": "U", "NORAD_CAT_ID": 30873, "ELEMENT_SET_NO": 999, "REV_AT_EPOCH": 97051, "BSTAR": 0.00029970349, "MEAN_MOTION_DOT": 6.21e-06, "MEAN_MOTION_DDOT": 0}, "tle": {"line1": "1 30873U 99025AXK 25336.79560890  .00000621  00000+0  29970-3 0  9997", "line2": "2 30873  98.6116 337.3821 0108089 317.6858  41.6016 14.19120964970512"}}, "geometry": {"type": "Point", "coordinates": [-31.232017769410422, 51.42735382888583]}}, {"type": "Feature", "properties": {"norad_id": 30874, "name": "FENGYUN 1C DEB", "group": "fengyun-1c-debris", "lat": -46.30398688854483, "lon": 19.11931621668863, "alt_km": 843.185717433722, "timestamp": "2025-12-05T04:52:15.571214+00:00", "meta": {"OBJECT_NAME": "FENGYUN 1C DEB", "OBJECT_ID": "1999-025AXL", "EPOCH": "2025-12-03T00:47:49.890048", "MEAN_MOTION": 14.19619901, "ECCENTRICITY": 0.00424445, "INCLINATION": 98.4915, "RA_OF_ASC_NODE": 8.0432, "ARG_OF_PERICENTER": 68.3697, "MEAN_ANOMALY": 322.7179, "EPHEMERIS_TYPE": 0, "CLASSIFICATION_TYPE": "U", "NORAD_CAT_ID": 30874, "ELEMENT_SET_NO": 999, "REV_AT_EPOCH": 96883, "BSTAR": 0.00057497792, "MEAN_MOTION_DOT": 1.184e-05, "MEAN_MOTION_DDOT": 0}, "tle": {"line1": "1 30874U 99025AXL 25337.03321632  .00001184  00000+0  57498-3 0  9996", "line2": "2 30874  98.4915   8.0432 0042444  68.3697 322.7179 14.19619901968830"}}, "geometry": {"type": "Point", "coordinates": [19.11931621668863, -46.30398688854483]}}]}